{"type": "FeatureCollection", "features": [ {"type": "Feature", "properties": {"norad_id": 36011, "name": "IRIDIUM 33 DEB", "group": "iridium-33-debris", "lat": -51.957091988173254, "lon": 31.705238337005657, "alt_km": 759.8059457969284, "timestamp": "2025-12-10T11:33:53.769822+00:00", "meta": {"OBJECT_NAME": "IRIDIUM 33 DEB", "OBJECT_ID": "1997-051US", "EPOCH": "2025-12-08T10:05:26.079072", "MEAN_MOTION": 14.41310203, "ECCENTRICITY": 0.00172479, "INCLINATION": 86.3414, "RA_OF_ASC_NODE": 37.2804, "ARG_OF_PERICENTER": 231.0749, "MEAN_ANOMALY": 187.2759, "EPHEMERIS_TYPE": 0, "CLASSIFICATION_TYPE": "U", "NORAD_CAT_ID": 36011, "ELEMENT_SET_NO": 999, "REV_AT_EPOCH": 64478, "BSTAR": 0.00083412768, "MEAN_MOTION_DOT": 2.72e-05, "MEAN_MOTION_DDOT": 0}, "tle": {"line1": "1 36011U 97051US  25342.42044073  .00002720  00000+0  83413-3 0  9995", "line2": "2 36011  86.3414  37.2804 0017247 231.0749 187.2759 14.41310203644787"}}, "geometry": {"type": "Point", "coordinates": [31.705238337005657, -51.957091988173254]}}, {"type": "Feature", "properties": {"norad_id": 36012, "name": "IRIDIUM 33 DEB", "group": "iridium-33-debris", "lat": 55.43230782226626, "lon": -46.37544425255521, "alt_km": 948.4036381890664, "timestamp": "2025-12-10T11:33:53.769832+00:00", "meta": {"OBJECT_NAME": "IRIDIUM 33 DEB", "OBJECT_ID": "1997-051UT", "EPOCH": "2025-12-09T14:59:18.724128", "MEAN_MOTION": 14.18848487, "ECCENTRICITY": 0.0212452, "INCLINATION": 86.4428, "RA_OF_ASC_NODE": 308.7902, "ARG_OF_PERICENTER": 273.2722, "MEAN_ANOMALY": 84.4182, "EPHEMERIS_TYPE": 0, "CLASSIFICATION_TYPE": "U", "NORAD_CAT_ID": 36012, "ELEMENT_SET_NO": 999, "REV_AT_EPOCH": 65440, "BSTAR": 0.0096093, "MEAN_MOTION_DOT": 0.00025103, "MEAN_MOTION_DDOT": 0}, "tle": {"line1": "1 36012U 97051UT  25343.62452227  .00025103  00000+0  96093-2 0  9990", "line2": "2 36012  86.4428 308.7902 0212452 273.2722  84.4182 14.18848487654405"}}, "geometry": {"type": "Point", "coordinates": [-46.37544425255521, 55.43230782226626]}}, {"type": "Feature", "properties": {"norad_id": 36028, "name": "IRIDIUM 33 DEB", "group": "iridium-33-debris", "lat": -57.7027298128501, "lon": 133.60016965847484, "alt_km": 604.4952613889454, "timestamp": "2025-12-10T11:33:53.769842+00:00", "meta": {"OBJECT_NAME": "IRIDIUM 33 DEB", "OBJECT_ID": "1997-051VK", "EPOCH": "2025-12-10T04:04:48.277344", "MEAN_MOTION": 14.95085193, "ECCENTRICITY": 0.002193, "INCLINATION": 86.3223, "RA_OF_ASC_NODE": 307.9065, "ARG_OF_PERICENTER": 61.0093, "MEAN_ANOMALY": 299.3331, "EPHEMERIS_TYPE": 0, "CLASSIFICATION_TYPE": "U", "NORAD_CAT_ID": 36028, "ELEMENT_SET_NO": 999, "REV_AT_EPOCH": 87086, "BSTAR": 0.0033794, "MEAN_MOTION_DOT": 0.00037369, "MEAN_MOTION_DDOT": 0}, "tle": {"line1": "1 36028U 97051VK  25344.17000321  .00037369  00000+0  33794-2 0  9998", "line2": "2 36028  86.3223 307.9065 0021930  61.0093 299.3331 14.95085193870863"}}, "geometry": {"type": "Point", "coordinates": [133.60016965847484, -57.7027298128501]}}, {"type": "Feature", "properties": {"norad_id": 36080, "name": "IRIDIUM 33 DEB", "group": "iridium-33-debris", "lat": 49.27828925633325, "lon": -175.31758638162503, "alt_km": 721.7809310696775, "timestamp": "2025-12-10T11:33:53.769852+00:00", "meta": {"OBJECT_NAME": "IRIDIUM 33 DEB", "OBJECT_ID": "1997-051VM", "EPOCH": "2025-12-09T08:24:04.128192", "MEAN_MOTION": 14.46584309, "ECCENTRICITY": 0.0017863, "INCLINATION": 86.3197, "RA_OF_ASC_NODE": 9.4635, "ARG_OF_PERICENTER": 167.4902, "MEAN_ANOMALY": 192.6748, "EPHEMERIS_TYPE": 0, "CLASSIFICATION_TYPE": "U", "NORAD_CAT_ID": 36080, "ELEMENT_SET_NO": 999, "REV_AT_EPOCH": 47365, "BSTAR": 0.0010095558, "MEAN_MOTION_DOT": 3.665e-05, "MEAN_MOTION_DDOT": 0}, "tle": {"line1": "1 36080U 97051VM  25343.35004778  .00003665  00000+0  10096-2 0  9997", "line2": "2 36080  86.3197   9.4635 0017863 167.4902 192.6748 14.46584309473650"}}, "geometry": {"type": "Point", "coordinates": [-175.31758638162503, 49.27828925633325]}}, {"type": "Feature", "properties": {"norad_id": 36083, "name": "IRIDIUM 33 DEB", "group": "iridium-33-debris", "lat": -70.15200683505907, "lon": -134.67195953859994, "alt_km": 738.6094655304751, "timestamp": "2025-12-10T11:33:53.769863+00:00", "meta": {"OBJECT_NAME": "IRIDIUM 33 DEB", "OBJECT_ID": "1997-051VQ", "EPOCH": "2025-12-06T21:32:26.892672", "MEAN_MOTION": 14.43175138, "ECCENTRICITY": 0.00247889, "INCLINATION": 86.3442, "RA_OF_ASC_NODE": 36.6683, "ARG_OF_PERICENTER": 243.3344, "MEAN_ANOMALY": 116.5319, "EPHEMERIS_TYPE": 0, "CLASSIFICATION_TYPE": "U", "NORAD_CAT_ID": 36083, "ELEMENT_SET_NO": 999, "REV_AT_EPOCH": 85365, "BSTAR": 0.00098432537, "MEAN_MOTION_DOT": 3.337e-05, "MEAN_MOTION_DDOT": 0}, "tle": {"line1": "1 36083U 97051VQ  25340.89753348  .00003337  00000+0  98433-3 0  9998", "line2": "2 36083  86.3442  36.6683 0024788 243.3344 116.5319 14.43175138853653"}}, "geometry": {"type": "Point", "coordinates": [-134.67195953859994, -70.15200683505907]}}, {"type": "Feature", "properties": {"norad_id": 36390, "name": "IRIDIUM 33 DEB", "group": "iridium-33-debris", "lat": -2.3856249473029107, "lon": 120.58243929721192, "alt_km": 632.3532526067438, "timestamp": "2025-12-10T11:33:53.769872+00:00", "meta": {"OBJECT_NAME": "IRIDIUM 33 DEB", "OBJECT_ID": "1997-051VU", "EPOCH": "2025-12-10T04:13:18.490944", "MEAN_MOTION": 14.73548967, "ECCENTRICITY": 0.0030344, "INCLINATION": 86.2912, "RA_OF_ASC_NODE": 300.5678, "ARG_OF_PERICENTER": 170.4808, "MEAN_ANOMALY": 189.6991, "EPHEMERIS_TYPE": 0, "CLASSIFICATION_TYPE": "U", "NORAD_CAT_ID": 36390, "ELEMENT_SET_NO": 999, "REV_AT_EPOCH": 66224, "BSTAR": 0.0016206, "MEAN_MOTION_DOT": 0.00010646, "MEAN_MOTION_DDOT": 0}, "tle": {"line1": "1 36390U 97051VU  25344.17590846  .00010646  00000+0  16206-2 0  9994", "line2": "2 36390  86.2912 300.5678 0030344 170.4808 189.6991 14.73548967662249"}}, "geometry": {"type": "Point", "coordinates": [120.58243929721192, -2.3856249473029107]}}, {"type": "Feature", "properties": {"norad_id": 36483, "name": "IRIDIUM 33 DEB", "group": "iridium-33-debris", "lat": 32.50467738317107, "lon": 55.76805201117549, "alt_km": 738.6918527207026, "timestamp": "2025-12-10T11:33:53.769882+00:00", "meta": {"OBJECT_NAME": "IRIDIUM 33 DEB", "OBJECT_ID": "1997-051VZ", "EPOCH": "2025-12-08T11:14:38.908896", "MEAN_MOTION": 14.45787314, "ECCENTRICITY": 0.00108756, "INCLINATION": 86.3794, "RA_OF_ASC_NODE": 54.3174, "ARG_OF_PERICENTER": 137.8715, "MEAN_ANOMALY": 222.3325, "EPHEMERIS_TYPE": 0, "CLASSIFICATION_TYPE": "U", "NORAD_CAT_ID": 36483, "ELEMENT_SET_NO": 999, "REV_AT_EPOCH": 65084, "BSTAR": 0.00090663472, "MEAN_MOTION_DOT": 3.235e-05, "MEAN_MOTION_DDOT": 0}, "tle": {"line1": "1 36483U 97051VZ  25342.46850589  .00003235  00000+0  90663-3 0  9996", "line2": "2 36483  86.3794  54.3174 0010875 137.8715 222.3325 14.45787314650846"}}, "geometry": {"type": "Point", "coordinates": [55.76805201117549, 32.50467738317107]}}, {"type": "Feature", "properties": {"norad_id": 36490, "name": "IRIDIUM 33 DEB", "group": "iridium-33-debris", "lat": 43.14766962857968, "lon": 14.896803349058526, "alt_km": 635.3571703926018, "timestamp": "2025-12-10T11:33:53.769892+00:00", "meta": {"OBJECT_NAME": "IRIDIUM 33 DEB", "OBJECT_ID": "1997-051WG", "EPOCH": "2025-12-09T19:05:59.977248", "MEAN_MOTION": 14.76091119, "ECCENTRICITY": 0.0005554, "INCLINATION": 86.3657, "RA_OF_ASC_NODE": 11.7906, "ARG_OF_PERICENTER": 90.0587, "MEAN_ANOMALY": 270.1268, "EPHEMERIS_TYPE": 0, "CLASSIFICATION_TYPE": "U", "NORAD_CAT_ID": 36490, "ELEMENT_SET_NO": 999, "REV_AT_EPOCH": 86441, "BSTAR": 0.0023534, "MEAN_MOTION_DOT": 0.00016282, "MEAN_MOTION_DDOT": 0}, "tle": {"line1": "1 36490U 97051WG  25343.79583307  .00016282  00000+0  23534-2 0  9990", "line2": "2 36490  86.3657  11.7906 0005554  90.0587 270.1268 14.76091119864419"}}, "geometry": {"type": "Point", "coordinates": [14.896803349058526, 43.14766962857968]}}, {"type": "Feature", "properties": {"norad_id": 36493, "name": "IRIDIUM 33 DEB", "group": "iridium-33-debris", "lat": 54.75774128251136, "lon": 17.855878092025065, "alt_km": 665.8640348223971, "timestamp": "2025-12-10T11:33:53.769902+00:00", "meta": {"OBJECT_NAME": "IRIDIUM 33 DEB", "OBJECT_ID": "1997-051WK", "EPOCH": "2025-12-09T18:55:29.176896", "MEAN_MOTION": 14.65174136, "ECCENTRICITY": 0.0010573, "INCLINATION": 86.3573, "RA_OF_ASC_NODE": 12.9906, "ARG_OF_PERICENTER": 14.947, "MEAN_ANOMALY": 345.2053, "EPHEMERIS_TYPE": 0, "CLASSIFICATION_TYPE": "U", "NORAD_CAT_ID": 36493, "ELEMENT_SET_NO": 999, "REV_AT_EPOCH": 74475, "BSTAR": 0.0019764, "MEAN_MOTION_DOT": 0.00010665, "MEAN_MOTION_DDOT": 0}, "tle": {"line1": "1 36493U 97051WK  25343.78853214  .00010665  00000+0  19764-2 0  9998", "line2": "2 36493  86.3573  12.9906 0010573  14.9470 345.2053 14.65174136744754"}}, "geometry": {"type": "Point", "coordinates": [17.855878092025065, 54.75774128251136]}}, {"type": "Feature", "properties": {"norad_id": 37548, "name": "IRIDIUM 33 DEB", "group": "iridium-33-debris", "lat": -4.979907964297314, "lon": 44.032736377696146, "alt_km": 741.8271082065039, "timestamp": "2025-12-10T11:33:53.769913+00:00", "meta": {"OBJECT_NAME": "IRIDIUM 33 DEB", "OBJECT_ID": "1997-051XH", "EPOCH": "2025-12-08T21:31:39.163584", "MEAN_MOTION": 14.51252553, "ECCENTRICITY": 0.0025132, "INCLINATION": 86.3517, "RA_OF_ASC_NODE": 45.0407, "ARG_OF_PERICENTER": 201.7474, "MEAN_ANOMALY": 158.2667, "EPHEMERIS_TYPE": 0, "CLASSIFICATION_TYPE": "U", "NORAD_CAT_ID": 37548, "ELEMENT_SET_NO": 999, "REV_AT_EPOCH": 65476, "BSTAR": 0.0012917, "MEAN_MOTION_DOT": 5.175e-05, "MEAN_MOTION_DDOT": 0}, "tle": {"line1": "1 37548U 97051XH  25342.89698106  .00005175  00000+0  12917-2 0  9991", "line2": "2 37548  86.3517  45.0407 0025132 201.7474 158.2667 14.51252553654763"}}, "geometry": {"type": "Point", "coordinates": [44.032736377696146, -4.979907964297314]}}]}